{
  "norad_id": 61857,
  "name": "STARLINK-32451",
  "history": [
    {
      "epoch": "2026-03-28T19:41:06.513792Z",
      "apogee_km": 483.1147546567963,
      "perigee_km": 482.977119327079,
      "latitude_deg": -9.327504347391311e-06,
      "longitude_deg": 8.41867327369475,
      "height_km": 482.79362146828174,
      "semi_major_axis_km": 6861.182936991937,
      "eccentricity": 1.003e-05,
      "inclination_deg": 43.0026,
      "raan_deg": 129.931,
      "arg_perigee_deg": 66.0605,
      "mean_anomaly_deg": 294.0257,
      "mean_motion_rev_day": 15.27581055
    },
    {
      "epoch": "2026-03-29T01:57:43.560288Z",
      "apogee_km": 483.2382604390068,
      "perigee_km": 482.7991464739853,
      "latitude_deg": -5.00597287407753e-05,
      "longitude_deg": -87.47181606956424,
      "height_km": 482.90263373861393,
      "semi_major_axis_km": 6861.155703456496,
      "eccentricity": 3.2e-05,
      "inclination_deg": 43.0019,
      "raan_deg": 128.4527,
      "arg_perigee_deg": 240.522,
      "mean_anomaly_deg": 119.5599,
      "mean_motion_rev_day": 15.2759015
    },
    {
      "epoch": "2026-03-30T03:04:13.424160Z",
      "apogee_km": 484.04497604619246,
      "perigee_km": 481.92900540745177,
      "latitude_deg": 1.0887725898416e-05,
      "longitude_deg": -111.03314431643932,
      "height_km": 482.5879042474493,
      "semi_major_axis_km": 6861.123990726822,
      "eccentricity": 0.0001542,
      "inclination_deg": 42.9962,
      "raan_deg": 122.5469,
      "arg_perigee_deg": 80.6228,
      "mean_anomaly_deg": 279.4798,
      "mean_motion_rev_day": 15.27600741
    },
    {
      "epoch": "2026-03-30T03:04:13.425024Z",
      "apogee_km": 484.0448388237128,
      "perigee_km": 481.92914262993145,
      "latitude_deg": 1.2438692636583302e-05,
      "longitude_deg": -111.03314627205893,
      "height_km": 482.5879266026044,
      "semi_major_axis_km": 6861.123990726822,
      "eccentricity": 0.00015418,
      "inclination_deg": 42.9962,
      "raan_deg": 122.5469,
      "arg_perigee_deg": 80.6228,
      "mean_anomaly_deg": 279.4798,
      "mean_motion_rev_day": 15.27600741
    },
    {
      "epoch": "2026-03-30T18:45:47.140704Z",
      "apogee_km": 483.14671185833777,
      "perigee_km": 482.91452994604606,
      "latitude_deg": 5.963598822948969e-05,
      "longitude_deg": 9.238546573836247,
      "height_km": 482.8412461565246,
      "semi_major_axis_km": 6861.167620902192,
      "eccentricity": 1.692e-05,
      "inclination_deg": 43.0009,
      "raan_deg": 118.8535,
      "arg_perigee_deg": 252.47,
      "mean_anomaly_deg": 107.6134,
      "mean_motion_rev_day": 15.2758617
    },
    {
      "epoch": "2026-03-31T08:53:11.701248Z",
      "apogee_km": 483.20096015435774,
      "perigee_km": 482.88891359986974,
      "latitude_deg": 1.927725677215531e-05,
      "longitude_deg": 153.48173762347955,
      "height_km": 482.9026379170005,
      "semi_major_axis_km": 6861.181936877114,
      "eccentricity": 2.274e-05,
      "inclination_deg": 42.9996,
      "raan_deg": 115.5291,
      "arg_perigee_deg": 121.9444,
      "mean_anomaly_deg": 238.143,
      "mean_motion_rev_day": 15.27581389
    },
    {
      "epoch": "2026-04-01T17:50:29.080032Z",
      "apogee_km": 483.20445111542085,
      "perigee_km": 482.8984421107016,
      "latitude_deg": -2.529420924819434e-06,
      "longitude_deg": 10.050797896479267,
      "height_km": 482.8236648460177,
      "semi_major_axis_km": 6861.188446613061,
      "eccentricity": 2.23e-05,
      "inclination_deg": 42.9994,
      "raan_deg": 107.774,
      "arg_perigee_deg": 271.2538,
      "mean_anomaly_deg": 88.8288,
      "mean_motion_rev_day": 15.27579215
    },
    {
      "epoch": "2026-04-02T17:22:49.228032Z",
      "apogee_km": 483.26756031126024,
      "perigee_km": 482.77602689528703,
      "latitude_deg": -3.926676109191166e-05,
      "longitude_deg": 10.460600034851087,
      "height_km": 482.80656186050294,
      "semi_major_axis_km": 6861.158793603274,
      "eccentricity": 3.582e-05,
      "inclination_deg": 42.9994,
      "raan_deg": 102.2345,
      "arg_perigee_deg": 267.8855,
      "mean_anomaly_deg": 92.1955,
      "mean_motion_rev_day": 15.27589118
    },
    {
      "epoch": "2026-04-03T16:55:10.102656Z",
      "apogee_km": 483.2817360422305,
      "perigee_km": 482.8028257284259,
      "latitude_deg": 2.2937934658866373e-05,
      "longitude_deg": 10.86857112033673,
      "height_km": 482.8330023803605,
      "semi_major_axis_km": 6861.179280885328,
      "eccentricity": 3.49e-05,
      "inclination_deg": 42.9987,
      "raan_deg": 96.6961,
      "arg_perigee_deg": 266.3806,
      "mean_anomaly_deg": 93.7006,
      "mean_motion_rev_day": 15.27582276
    },
    {
      "epoch": "2026-04-04T08:36:45.010656Z",
      "apogee_km": 483.28552094404677,
      "perigee_km": 482.89003994770155,
      "latitude_deg": 3.0081315250804813e-05,
      "longitude_deg": 131.13653853374805,
      "height_km": 482.7946210239949,
      "semi_major_axis_km": 6861.224780445874,
      "eccentricity": 2.882e-05,
      "inclination_deg": 42.9992,
      "raan_deg": 93.004,
      "arg_perigee_deg": 69.8232,
      "mean_anomaly_deg": 290.2651,
      "mean_motion_rev_day": 15.27567081
    }
  ]
}